STARLINK-36864          
1 68045U 26041F   26068.58335648 -.01694969  80564-3 -48535-2 0  9999
2 68045  53.1590  62.7991 0000700  81.7224 135.1054 15.92627268  2350
STARLINK-36321          
1 68046U 26041G   26068.58335648 -.01688069  80287-3 -47308-2 0  9993
2 68046  53.1592  62.7843 0000795  76.8757 147.0208 15.93037223  2359
STARLINK-36181          
1 68047U 26041H   26068.58335648 -.01676913  79204-3 -47335-2 0  9996
2 68047  53.1591  62.7896 0000842  75.5367 145.8960 15.92898335  2239
STARLINK-36318          
1 68048U 26041J   26068.58335648 -.01670551  78863-3 -46492-2 0  9992
2 68048  53.1592  62.7797 0000609  75.7512 150.4051 15.93167313  2358
STARLINK-36885          
1 68049U 26041K   26068.58335648 -.01680549  79945-3 -46123-2 0  9994
2 68049  53.1591  62.7689 0000816  71.7673 159.5669 15.93433183  2358
STARLINK-36945          
1 68050U 26041L   26068.58335648 -.01673289  79206-3 -46244-2 0  9993
2 68050  53.1590  62.7742 0000728  78.6795 150.1064 15.93300424  2359
STARLINK-35911          
1 68051U 26041M   26068.58335648 -.01676086  79657-3 -45689-2 0  9994
2 68051  53.1591  62.7637 0000686  77.0670 156.9532 15.93561597  2312
STARLINK-35808          
1 68052U 26041N   26068.58335648 -.01688926  80898-3 -45704-2 0  9998
2 68052  53.1588  62.7581 0000751  83.7393 152.6646 15.93701688  2312
STARLINK-36919          
1 68053U 26041P   26068.58335648 -.01663273  78740-3 -44732-2 0  9990
2 68053  53.1590  62.7529 0000635  75.8112 163.1802 15.93814774  2356
STARLINK-36924          
1 68054U 26041Q   26068.58335648 -.01674069  79898-3 -44390-2 0  9991
2 68054  53.1588  62.7438 0000730  76.2053 167.3864 15.94083037  2353
STARLINK-35998          
1 68055U 26041R   26068.58335648 -.01678293  80168-3 -44802-2 0  9995
2 68055  53.1590  62.7480 0000753  79.2931 161.9121 15.93957205  2315
STARLINK-36845          
1 68056U 26041S   26068.58335648 -.01662148  78956-3 -43772-2 0  9995
2 68056  53.1587  62.7388 0000700  70.7532 175.1572 15.94210582  2356
