CCSDS_OMM_VERS = 2.0
CREATION_DATE  = 
ORIGINATOR     = 

OBJECT_NAME    = STARLINK-36864
OBJECT_ID      = 2026-041F
CENTER_NAME    = EARTH
REF_FRAME      = TEME
TIME_SYSTEM    = UTC
MEAN_ELEMENT_THEORY = SGP/SGP4

EPOCH          = 2026-03-09T14:00:01.999872
MEAN_MOTION    = 15.92627268
ECCENTRICITY   = .00007004
INCLINATION    = 53.1590
RA_OF_ASC_NODE = 62.7991
ARG_OF_PERICENTER = 81.7224
MEAN_ANOMALY   = 135.1054

EPHEMERIS_TYPE = 0
CLASSIFICATION_TYPE = U
NORAD_CAT_ID   = 68045
ELEMENT_SET_NO = 999
REV_AT_EPOCH   = 235
BSTAR          = -.48535365E-2
MEAN_MOTION_DOT = -.1694969E-1
MEAN_MOTION_DDOT = .80564381E-3

CCSDS_OMM_VERS = 2.0
CREATION_DATE  = 
ORIGINATOR     = 

OBJECT_NAME    = STARLINK-36321
OBJECT_ID      = 2026-041G
CENTER_NAME    = EARTH
REF_FRAME      = TEME
TIME_SYSTEM    = UTC
MEAN_ELEMENT_THEORY = SGP/SGP4

EPOCH          = 2026-03-09T14:00:01.999872
MEAN_MOTION    = 15.93037223
ECCENTRICITY   = .00007956
INCLINATION    = 53.1592
RA_OF_ASC_NODE = 62.7843
ARG_OF_PERICENTER = 76.8757
MEAN_ANOMALY   = 147.0208

EPHEMERIS_TYPE = 0
CLASSIFICATION_TYPE = U
NORAD_CAT_ID   = 68046
ELEMENT_SET_NO = 999
REV_AT_EPOCH   = 235
BSTAR          = -.47308177E-2
MEAN_MOTION_DOT = -.1688069E-1
MEAN_MOTION_DDOT = .80287405E-3

CCSDS_OMM_VERS = 2.0
CREATION_DATE  = 
ORIGINATOR     = 

OBJECT_NAME    = STARLINK-36181
OBJECT_ID      = 2026-041H
CENTER_NAME    = EARTH
REF_FRAME      = TEME
TIME_SYSTEM    = UTC
MEAN_ELEMENT_THEORY = SGP/SGP4

EPOCH          = 2026-03-09T14:00:01.999872
MEAN_MOTION    = 15.92898335
ECCENTRICITY   = .0000842
INCLINATION    = 53.1591
RA_OF_ASC_NODE = 62.7896
ARG_OF_PERICENTER = 75.5367
MEAN_ANOMALY   = 145.8960

EPHEMERIS_TYPE = 0
CLASSIFICATION_TYPE = U
NORAD_CAT_ID   = 68047
ELEMENT_SET_NO = 999
REV_AT_EPOCH   = 223
BSTAR          = -.47334754E-2
MEAN_MOTION_DOT = -.1676913E-1
MEAN_MOTION_DDOT = .79204283E-3

CCSDS_OMM_VERS = 2.0
CREATION_DATE  = 
ORIGINATOR     = 

OBJECT_NAME    = STARLINK-36318
OBJECT_ID      = 2026-041J
CENTER_NAME    = EARTH
REF_FRAME      = TEME
TIME_SYSTEM    = UTC
MEAN_ELEMENT_THEORY = SGP/SGP4

EPOCH          = 2026-03-09T14:00:01.999872
MEAN_MOTION    = 15.93167313
ECCENTRICITY   = .00006099
INCLINATION    = 53.1592
RA_OF_ASC_NODE = 62.7797
ARG_OF_PERICENTER = 75.7512
MEAN_ANOMALY   = 150.4051

EPHEMERIS_TYPE = 0
CLASSIFICATION_TYPE = U
NORAD_CAT_ID   = 68048
ELEMENT_SET_NO = 999
REV_AT_EPOCH   = 235
BSTAR          = -.46492434E-2
MEAN_MOTION_DOT = -.1670551E-1
MEAN_MOTION_DDOT = .78862672E-3

CCSDS_OMM_VERS = 2.0
CREATION_DATE  = 
ORIGINATOR     = 

OBJECT_NAME    = STARLINK-36885
OBJECT_ID      = 2026-041K
CENTER_NAME    = EARTH
REF_FRAME      = TEME
TIME_SYSTEM    = UTC
MEAN_ELEMENT_THEORY = SGP/SGP4

EPOCH          = 2026-03-09T14:00:01.999872
MEAN_MOTION    = 15.93433183
ECCENTRICITY   = .00008167
INCLINATION    = 53.1591
RA_OF_ASC_NODE = 62.7689
ARG_OF_PERICENTER = 71.7673
MEAN_ANOMALY   = 159.5669

EPHEMERIS_TYPE = 0
CLASSIFICATION_TYPE = U
NORAD_CAT_ID   = 68049
ELEMENT_SET_NO = 999
REV_AT_EPOCH   = 235
BSTAR          = -.46123495E-2
MEAN_MOTION_DOT = -.1680549E-1
MEAN_MOTION_DDOT = .79945183E-3

CCSDS_OMM_VERS = 2.0
CREATION_DATE  = 
ORIGINATOR     = 

OBJECT_NAME    = STARLINK-36945
OBJECT_ID      = 2026-041L
CENTER_NAME    = EARTH
REF_FRAME      = TEME
TIME_SYSTEM    = UTC
MEAN_ELEMENT_THEORY = SGP/SGP4

EPOCH          = 2026-03-09T14:00:01.999872
MEAN_MOTION    = 15.93300424
ECCENTRICITY   = .0000728
INCLINATION    = 53.1590
RA_OF_ASC_NODE = 62.7742
ARG_OF_PERICENTER = 78.6795
MEAN_ANOMALY   = 150.1064

EPHEMERIS_TYPE = 0
CLASSIFICATION_TYPE = U
NORAD_CAT_ID   = 68050
ELEMENT_SET_NO = 999
REV_AT_EPOCH   = 235
BSTAR          = -.46244272E-2
MEAN_MOTION_DOT = -.1673289E-1
MEAN_MOTION_DDOT = .7920567E-3

CCSDS_OMM_VERS = 2.0
CREATION_DATE  = 
ORIGINATOR     = 

OBJECT_NAME    = STARLINK-35911
OBJECT_ID      = 2026-041M
CENTER_NAME    = EARTH
REF_FRAME      = TEME
TIME_SYSTEM    = UTC
MEAN_ELEMENT_THEORY = SGP/SGP4

EPOCH          = 2026-03-09T14:00:01.999872
MEAN_MOTION    = 15.93561597
ECCENTRICITY   = .00006861
INCLINATION    = 53.1591
RA_OF_ASC_NODE = 62.7637
ARG_OF_PERICENTER = 77.0670
MEAN_ANOMALY   = 156.9532

EPHEMERIS_TYPE = 0
CLASSIFICATION_TYPE = U
NORAD_CAT_ID   = 68051
ELEMENT_SET_NO = 999
REV_AT_EPOCH   = 231
BSTAR          = -.45689097E-2
MEAN_MOTION_DOT = -.1676086E-1
MEAN_MOTION_DDOT = .796571E-3

CCSDS_OMM_VERS = 2.0
CREATION_DATE  = 
ORIGINATOR     = 

OBJECT_NAME    = STARLINK-35808
OBJECT_ID      = 2026-041N
CENTER_NAME    = EARTH
REF_FRAME      = TEME
TIME_SYSTEM    = UTC
MEAN_ELEMENT_THEORY = SGP/SGP4

EPOCH          = 2026-03-09T14:00:01.999872
MEAN_MOTION    = 15.93701688
ECCENTRICITY   = .00007518
INCLINATION    = 53.1588
RA_OF_ASC_NODE = 62.7581
ARG_OF_PERICENTER = 83.7393
MEAN_ANOMALY   = 152.6646

EPHEMERIS_TYPE = 0
CLASSIFICATION_TYPE = U
NORAD_CAT_ID   = 68052
ELEMENT_SET_NO = 999
REV_AT_EPOCH   = 231
BSTAR          = -.45703895E-2
MEAN_MOTION_DOT = -.1688926E-1
MEAN_MOTION_DDOT = .80897842E-3

CCSDS_OMM_VERS = 2.0
CREATION_DATE  = 
ORIGINATOR     = 

OBJECT_NAME    = STARLINK-36919
OBJECT_ID      = 2026-041P
CENTER_NAME    = EARTH
REF_FRAME      = TEME
TIME_SYSTEM    = UTC
MEAN_ELEMENT_THEORY = SGP/SGP4

EPOCH          = 2026-03-09T14:00:01.999872
MEAN_MOTION    = 15.93814774
ECCENTRICITY   = .00006356
INCLINATION    = 53.1590
RA_OF_ASC_NODE = 62.7529
ARG_OF_PERICENTER = 75.8112
MEAN_ANOMALY   = 163.1802

EPHEMERIS_TYPE = 0
CLASSIFICATION_TYPE = U
NORAD_CAT_ID   = 68053
ELEMENT_SET_NO = 999
REV_AT_EPOCH   = 235
BSTAR          = -.4473217E-2
MEAN_MOTION_DOT = -.1663273E-1
MEAN_MOTION_DDOT = .787396E-3

CCSDS_OMM_VERS = 2.0
CREATION_DATE  = 
ORIGINATOR     = 

OBJECT_NAME    = STARLINK-36924
OBJECT_ID      = 2026-041Q
CENTER_NAME    = EARTH
REF_FRAME      = TEME
TIME_SYSTEM    = UTC
MEAN_ELEMENT_THEORY = SGP/SGP4

EPOCH          = 2026-03-09T14:00:01.999872
MEAN_MOTION    = 15.94083037
ECCENTRICITY   = .00007305
INCLINATION    = 53.1588
RA_OF_ASC_NODE = 62.7438
ARG_OF_PERICENTER = 76.2053
MEAN_ANOMALY   = 167.3864

EPHEMERIS_TYPE = 0
CLASSIFICATION_TYPE = U
NORAD_CAT_ID   = 68054
ELEMENT_SET_NO = 999
REV_AT_EPOCH   = 235
BSTAR          = -.44389778E-2
MEAN_MOTION_DOT = -.1674069E-1
MEAN_MOTION_DDOT = .79898267E-3

CCSDS_OMM_VERS = 2.0
CREATION_DATE  = 
ORIGINATOR     = 

OBJECT_NAME    = STARLINK-35998
OBJECT_ID      = 2026-041R
CENTER_NAME    = EARTH
REF_FRAME      = TEME
TIME_SYSTEM    = UTC
MEAN_ELEMENT_THEORY = SGP/SGP4

EPOCH          = 2026-03-09T14:00:01.999872
MEAN_MOTION    = 15.93957205
ECCENTRICITY   = .00007532
INCLINATION    = 53.1590
RA_OF_ASC_NODE = 62.7480
ARG_OF_PERICENTER = 79.2931
MEAN_ANOMALY   = 161.9121

EPHEMERIS_TYPE = 0
CLASSIFICATION_TYPE = U
NORAD_CAT_ID   = 68055
ELEMENT_SET_NO = 999
REV_AT_EPOCH   = 231
BSTAR          = -.44801604E-2
MEAN_MOTION_DOT = -.1678293E-1
MEAN_MOTION_DDOT = .801681E-3

CCSDS_OMM_VERS = 2.0
CREATION_DATE  = 
ORIGINATOR     = 

OBJECT_NAME    = STARLINK-36845
OBJECT_ID      = 2026-041S
CENTER_NAME    = EARTH
REF_FRAME      = TEME
TIME_SYSTEM    = UTC
MEAN_ELEMENT_THEORY = SGP/SGP4

EPOCH          = 2026-03-09T14:00:01.999872
MEAN_MOTION    = 15.94210582
ECCENTRICITY   = .00007003
INCLINATION    = 53.1587
RA_OF_ASC_NODE = 62.7388
ARG_OF_PERICENTER = 70.7532
MEAN_ANOMALY   = 175.1572

EPHEMERIS_TYPE = 0
CLASSIFICATION_TYPE = U
NORAD_CAT_ID   = 68056
ELEMENT_SET_NO = 999
REV_AT_EPOCH   = 235
BSTAR          = -.43771588E-2
MEAN_MOTION_DOT = -.1662148E-1
MEAN_MOTION_DDOT = .78955649E-3

